GHGSAT-C1               
1 46278U 20061G   26188.53141047  .00029451  00000+0  21717-3 0  9997
2 46278  97.2092 274.3459 0000526 163.7917 196.3364 15.72985572326676
GHGSAT-C2               
1 47509U 21006DA  26187.99457000  .00004917  00000+0  13344-3 0  9990
2 47509  97.2137 234.9202 0006888  97.4024 262.8004 15.38040944302896
GHGSAT-C3               
1 52737U 22057F   26188.51966987  .00004526  00000+0  13743-3 0  9993
2 52737  97.6623 334.9437 0006888  58.6807 301.5109 15.34613396228659
GHGSAT-C5               
1 52744U 22057N   26188.49369608  .00004602  00000+0  13978-3 0  9990
2 52744  97.6710 336.5144 0007551  55.9128 304.2829 15.34590585228654
GHGSAT-C4               
1 52746U 22057Q   26188.47512525  .00004480  00000+0  13612-3 0  9997
2 52746  97.6549 333.7083 0006847  44.5543 315.6249 15.34600482228659
GHGSAT-C8               
1 56186U 23054J   26188.51848913  .00011724  00000+0  18547-3 0  9996
2 56186  97.2961  98.0940 0004094  29.1088 331.0393 15.53600067181596
GHGSAT-C6               
1 56204U 23054AC  26188.48459036  .00012161  00000+0  19246-3 0  9990
2 56204  97.3023  98.7560 0004305 347.0871  13.0272 15.53577883181603
GHGSAT-C7               
1 56209U 23054AH  26188.53149000  .00007790  00000+0  13902-3 0  9993
2 56209  97.2977  97.1649 0005775 338.8512  21.2500 15.50329578181549
GHGSAT-C12              
1 64529U 25135B   26188.45385075  .00002734  00000+0  12857-3 0  9995
2 64529  97.4763 303.0840 0006468 101.6318 258.5644 15.20411702 57904
GHGSAT-C13              
1 64548U 25135W   26188.44639550  .00004241  00000+0  19248-3 0  9991
2 64548  97.4791 303.6778 0002199  75.7401 284.4079 15.21346206 57933
