{"fetched_at":"2026-07-07T18:29:26.941Z","source":"https://celestrak.org/NORAD/elements/gp.php?NAME=GHGSAT&FORMAT=JSON","constellation":"ghgsat","records":[{"OBJECT_NAME":"GHGSAT-C1","OBJECT_ID":"2020-061G","EPOCH":"2026-07-07T12:45:13.864608","CLASSIFICATION_TYPE":"U","MEAN_MOTION":15.72985572,"ECCENTRICITY":0.0000526,"INCLINATION":97.2092,"RA_OF_ASC_NODE":274.3459,"ARG_OF_PERICENTER":163.7917,"MEAN_ANOMALY":196.3364,"EPHEMERIS_TYPE":0,"NORAD_CAT_ID":46278,"ELEMENT_SET_NO":999,"REV_AT_EPOCH":32667,"BSTAR":0.00021717,"MEAN_MOTION_DOT":0.00029451,"MEAN_MOTION_DDOT":0},{"OBJECT_NAME":"GHGSAT-C2","OBJECT_ID":"2021-006DA","EPOCH":"2026-07-06T23:52:10.848000","CLASSIFICATION_TYPE":"U","MEAN_MOTION":15.38040944,"ECCENTRICITY":0.0006888,"INCLINATION":97.2137,"RA_OF_ASC_NODE":234.9202,"ARG_OF_PERICENTER":97.4024,"MEAN_ANOMALY":262.8004,"EPHEMERIS_TYPE":0,"NORAD_CAT_ID":47509,"ELEMENT_SET_NO":999,"REV_AT_EPOCH":30289,"BSTAR":0.00013344,"MEAN_MOTION_DOT":0.00004917,"MEAN_MOTION_DDOT":0},{"OBJECT_NAME":"GHGSAT-C3","OBJECT_ID":"2022-057F","EPOCH":"2026-07-07T12:28:19.476768","CLASSIFICATION_TYPE":"U","MEAN_MOTION":15.34613396,"ECCENTRICITY":0.0006888,"INCLINATION":97.6623,"RA_OF_ASC_NODE":334.9437,"ARG_OF_PERICENTER":58.6807,"MEAN_ANOMALY":301.5109,"EPHEMERIS_TYPE":0,"NORAD_CAT_ID":52737,"ELEMENT_SET_NO":999,"REV_AT_EPOCH":22865,"BSTAR":0.00013743,"MEAN_MOTION_DOT":0.00004526,"MEAN_MOTION_DDOT":0},{"OBJECT_NAME":"GHGSAT-C5","OBJECT_ID":"2022-057N","EPOCH":"2026-07-07T11:50:55.341312","CLASSIFICATION_TYPE":"U","MEAN_MOTION":15.34590585,"ECCENTRICITY":0.0007551,"INCLINATION":97.671,"RA_OF_ASC_NODE":336.5144,"ARG_OF_PERICENTER":55.9128,"MEAN_ANOMALY":304.2829,"EPHEMERIS_TYPE":0,"NORAD_CAT_ID":52744,"ELEMENT_SET_NO":999,"REV_AT_EPOCH":22865,"BSTAR":0.00013978,"MEAN_MOTION_DOT":0.00004602,"MEAN_MOTION_DDOT":0},{"OBJECT_NAME":"GHGSAT-C4","OBJECT_ID":"2022-057Q","EPOCH":"2026-07-07T11:24:10.821600","CLASSIFICATION_TYPE":"U","MEAN_MOTION":15.34600482,"ECCENTRICITY":0.0006847,"INCLINATION":97.6549,"RA_OF_ASC_NODE":333.7083,"ARG_OF_PERICENTER":44.5543,"MEAN_ANOMALY":315.6249,"EPHEMERIS_TYPE":0,"NORAD_CAT_ID":52746,"ELEMENT_SET_NO":999,"REV_AT_EPOCH":22865,"BSTAR":0.00013612,"MEAN_MOTION_DOT":0.0000448,"MEAN_MOTION_DDOT":0},{"OBJECT_NAME":"GHGSAT-C8","OBJECT_ID":"2023-054J","EPOCH":"2026-07-07T12:26:37.460832","CLASSIFICATION_TYPE":"U","MEAN_MOTION":15.53600067,"ECCENTRICITY":0.0004094,"INCLINATION":97.2961,"RA_OF_ASC_NODE":98.094,"ARG_OF_PERICENTER":29.1088,"MEAN_ANOMALY":331.0393,"EPHEMERIS_TYPE":0,"NORAD_CAT_ID":56186,"ELEMENT_SET_NO":999,"REV_AT_EPOCH":18159,"BSTAR":0.00018547,"MEAN_MOTION_DOT":0.00011724,"MEAN_MOTION_DDOT":0},{"OBJECT_NAME":"GHGSAT-C6","OBJECT_ID":"2023-054AC","EPOCH":"2026-07-07T11:37:48.607104","CLASSIFICATION_TYPE":"U","MEAN_MOTION":15.53577883,"ECCENTRICITY":0.0004305,"INCLINATION":97.3023,"RA_OF_ASC_NODE":98.756,"ARG_OF_PERICENTER":347.0871,"MEAN_ANOMALY":13.0272,"EPHEMERIS_TYPE":0,"NORAD_CAT_ID":56204,"ELEMENT_SET_NO":999,"REV_AT_EPOCH":18160,"BSTAR":0.00019246,"MEAN_MOTION_DOT":0.00012161,"MEAN_MOTION_DDOT":0},{"OBJECT_NAME":"GHGSAT-C7","OBJECT_ID":"2023-054AH","EPOCH":"2026-07-07T12:45:20.736000","CLASSIFICATION_TYPE":"U","MEAN_MOTION":15.50329578,"ECCENTRICITY":0.0005775,"INCLINATION":97.2977,"RA_OF_ASC_NODE":97.1649,"ARG_OF_PERICENTER":338.8512,"MEAN_ANOMALY":21.25,"EPHEMERIS_TYPE":0,"NORAD_CAT_ID":56209,"ELEMENT_SET_NO":999,"REV_AT_EPOCH":18154,"BSTAR":0.00013902,"MEAN_MOTION_DOT":0.0000779,"MEAN_MOTION_DDOT":0},{"OBJECT_NAME":"GHGSAT-C12","OBJECT_ID":"2025-135B","EPOCH":"2026-07-07T10:53:32.704800","CLASSIFICATION_TYPE":"U","MEAN_MOTION":15.20411702,"ECCENTRICITY":0.0006468,"INCLINATION":97.4763,"RA_OF_ASC_NODE":303.084,"ARG_OF_PERICENTER":101.6318,"MEAN_ANOMALY":258.5644,"EPHEMERIS_TYPE":0,"NORAD_CAT_ID":64529,"ELEMENT_SET_NO":999,"REV_AT_EPOCH":5790,"BSTAR":0.00012857,"MEAN_MOTION_DOT":0.00002734,"MEAN_MOTION_DDOT":0},{"OBJECT_NAME":"GHGSAT-C13","OBJECT_ID":"2025-135W","EPOCH":"2026-07-07T10:42:48.571200","CLASSIFICATION_TYPE":"U","MEAN_MOTION":15.21346206,"ECCENTRICITY":0.0002199,"INCLINATION":97.4791,"RA_OF_ASC_NODE":303.6778,"ARG_OF_PERICENTER":75.7401,"MEAN_ANOMALY":284.4079,"EPHEMERIS_TYPE":0,"NORAD_CAT_ID":64548,"ELEMENT_SET_NO":999,"REV_AT_EPOCH":5793,"BSTAR":0.00019248,"MEAN_MOTION_DOT":0.00004241,"MEAN_MOTION_DDOT":0}]}
